STARLINK-1807           
1 46706U 20073AN  26068.64914205  .00041618  00000+0  17212-2 0  9992
2 46706  53.0589 228.5688 0005019 167.7565 192.3554 15.23578372297310
FLOCK 4G-15             
1 62678U 25009BX  26068.71779869  .00012647  00000+0  47575-3 0  9991
2 62678  97.4054 151.1927 0003699 316.8208  43.2740 15.27266411121358
